STARLINK-2170
1 27753C 21017AH  21325.16319789  .00006674  00000-0  44699-3 0  3255
2 27753  53.0558  57.4868 0001354  72.1132 137.1476 15.06407268    10
